{
  "type": "FeatureCollection",
  "features": [
    {
      "type": "Feature",
      "properties": {
        "norad_id": 31655,
        "name": "FENGYUN 1C DEB",
        "group": "fengyun-1c-debris",
        "lat": -31.499322010529152,
        "lon": -71.33118009826626,
        "alt_km": 1232.2174735504123,
        "timestamp": "2025-12-02T13:52:17.545530+00:00",
        "meta_object_name": "FENGYUN 1C DEB",
        "meta_object_id": "1999-025CBM",
        "meta_epoch": "2025-12-02T03:33:47.704320",
        "meta_mean_motion": 13.63773307,
        "meta_eccentricity": 0.02884116,
        "meta_inclination": 99.2856,
        "meta_ra_of_asc_node": 282.5047,
        "meta_arg_of_pericenter": 165.6221,
        "meta_mean_anomaly": 213.94,
        "meta_ephemeris_type": 0,
        "meta_classification_type": "U",
        "meta_norad_cat_id": 31655,
        "meta_element_set_no": 999,
        "meta_rev_at_epoch": 59575,
        "meta_bstar": 0.002889873,
        "meta_mean_motion_dot": 2.997e-05,
        "meta_mean_motion_ddot": 0,
        "tle_line1": "1 31655U 99025CBM 25336.14846880  .00002997  00000+0  28899-2 0  9997",
        "tle_line2": "2 31655  99.2856 282.5047 0288411 165.6221 213.9400 13.63773307595756"
      },
      "geometry": {
        "type": "Point",
        "coordinates": [
          -71.33118009826626,
          -31.499322010529152
        ]
      }
    },
    {
      "type": "Feature",
      "properties": {
        "norad_id": 31656,
        "name": "FENGYUN 1C DEB",
        "group": "fengyun-1c-debris",
        "lat": -60.839244271906466,
        "lon": -18.626984180704167,
        "alt_km": 756.2080847695925,
        "timestamp": "2025-12-02T13:52:17.545540+00:00",
        "meta_object_name": "FENGYUN 1C DEB",
        "meta_object_id": "1999-025CBN",
        "meta_epoch": "2025-11-30T22:27:22.794336",
        "meta_mean_motion": 14.46709759,
        "meta_eccentricity": 0.00226463,
        "meta_inclination": 99.1923,
        "meta_ra_of_asc_node": 322.7218,
        "meta_arg_of_pericenter": 85.2285,
        "meta_mean_anomaly": 304.2152,
        "meta_ephemeris_type": 0,
        "meta_classification_type": "U",
        "meta_norad_cat_id": 31656,
        "meta_element_set_no": 999,
        "meta_rev_at_epoch": 96285,
        "meta_bstar": 0.0023435698,
        "meta_mean_motion_dot": 8.458e-05,
        "meta_mean_motion_ddot": 0,
        "tle_line1": "1 31656U 99025CBN 25334.93568049  .00008458  00000+0  23436-2 0  9991",
        "tle_line2": "2 31656  99.1923 322.7218 0022646  85.2285 304.2152 14.46709759962850"
      },
      "geometry": {
        "type": "Point",
        "coordinates": [
          -18.626984180704167,
          -60.839244271906466
        ]
      }
    },
    {
      "type": "Feature",
      "properties": {
        "norad_id": 31657,
        "name": "FENGYUN 1C DEB",
        "group": "fengyun-1c-debris",
        "lat": 8.336626756588782,
        "lon": 59.492689649126575,
        "alt_km": 909.8543295758027,
        "timestamp": "2025-12-02T13:52:17.545551+00:00",
        "meta_object_name": "FENGYUN 1C DEB",
        "meta_object_id": "1999-025CBP",
        "meta_epoch": "2025-12-01T23:19:04.849824",
        "meta_mean_motion": 13.96877363,
        "meta_eccentricity": 0.0144659,
        "meta_inclination": 102.2169,
        "meta_ra_of_asc_node": 236.8704,
        "meta_arg_of_pericenter": 80.0199,
        "meta_mean_anomaly": 281.7242,
        "meta_ephemeris_type": 0,
        "meta_classification_type": "U",
        "meta_norad_cat_id": 31657,
        "meta_element_set_no": 999,
        "meta_rev_at_epoch": 62714,
        "meta_bstar": 0.0034958058,
        "meta_mean_motion_dot": 5.25e-05,
        "meta_mean_motion_ddot": 0,
        "tle_line1": "1 31657U 99025CBP 25335.97158391  .00005250  00000+0  34958-2 0  9990",
        "tle_line2": "2 31657 102.2169 236.8704 0144659  80.0199 281.7242 13.96877363627140"
      },
      "geometry": {
        "type": "Point",
        "coordinates": [
          59.492689649126575,
          8.336626756588782
        ]
      }
    },
    {
      "type": "Feature",
      "properties": {
        "norad_id": 31658,
        "name": "FENGYUN 1C DEB",
        "group": "fengyun-1c-debris",
        "lat": 46.24254327124886,
        "lon": 178.17635281256204,
        "alt_km": 804.1237270106503,
        "timestamp": "2025-12-02T13:52:17.545561+00:00",
        "meta_object_name": "FENGYUN 1C DEB",
        "meta_object_id": "1999-025CBQ",
        "meta_epoch": "2025-11-30T13:35:01.131648",
        "meta_mean_motion": 13.98632883,
        "meta_eccentricity": 0.0215722,
        "meta_inclination": 98.1534,
        "meta_ra_of_asc_node": 184.9954,
        "meta_arg_of_pericenter": 356.7033,
        "meta_mean_anomaly": 3.2699,
        "meta_ephemeris_type": 0,
        "meta_classification_type": "U",
        "meta_norad_cat_id": 31658,
        "meta_element_set_no": 999,
        "meta_rev_at_epoch": 69646,
        "meta_bstar": 0.0024889,
        "meta_mean_motion_dot": 4.324e-05,
        "meta_mean_motion_ddot": 0,
        "tle_line1": "1 31658U 99025CBQ 25334.56598532  .00004324  00000+0  24889-2 0  9993",
        "tle_line2": "2 31658  98.1534 184.9954 0215722 356.7033   3.2699 13.98632883696462"
      },
      "geometry": {
        "type": "Point",
        "coordinates": [
          178.17635281256204,
          46.24254327124886
        ]
      }
    },
    {
      "type": "Feature",
      "properties": {
        "norad_id": 31660,
        "name": "FENGYUN 1C DEB",
        "group": "fengyun-1c-debris",
        "lat": -36.31052518864767,
        "lon": -15.485313371595307,
        "alt_km": 834.9031960097809,
        "timestamp": "2025-12-02T13:52:17.545572+00:00",
        "meta_object_name": "FENGYUN 1C DEB",
        "meta_object_id": "1999-025CBS",
        "meta_epoch": "2025-11-21T18:54:02.073600",
        "meta_mean_motion": 14.27033891,
        "meta_eccentricity": 0.01009939,
        "meta_inclination": 98.5056,
        "meta_ra_of_asc_node": 327.7074,
        "meta_arg_of_pericenter": 242.467,
        "meta_mean_anomaly": 116.6221,
        "meta_ephemeris_type": 0,
        "meta_classification_type": "U",
        "meta_norad_cat_id": 31660,
        "meta_element_set_no": 999,
        "meta_rev_at_epoch": 7617,
        "meta_bstar": 0.00068848685,
        "meta_mean_motion_dot": 1.726e-05,
        "meta_mean_motion_ddot": 0,
        "tle_line1": "1 31660U 99025CBS 25325.78752400  .00001726  00000+0  68849-3 0  9994",
        "tle_line2": "2 31660  98.5056 327.7074 0100993 242.4670 116.6221 14.27033891 76176"
      },
      "geometry": {
        "type": "Point",
        "coordinates": [
          -15.485313371595307,
          -36.31052518864767
        ]
      }
    },
    {
      "type": "Feature",
      "properties": {
        "norad_id": 31661,
        "name": "FENGYUN 1C DEB",
        "group": "fengyun-1c-debris",
        "lat": 80.75885580223284,
        "lon": -17.94621232297255,
        "alt_km": 840.0238585642628,
        "timestamp": "2025-12-02T13:52:17.545582+00:00",
        "meta_object_name": "FENGYUN 1C DEB",
        "meta_object_id": "1999-025CBT",
        "meta_epoch": "2025-11-30T04:18:51.433344",
        "meta_mean_motion": 14.25271811,
        "meta_eccentricity": 0.00575239,
        "meta_inclination": 98.8613,
        "meta_ra_of_asc_node": 53.1347,
        "meta_arg_of_pericenter": 259.6353,
        "meta_mean_anomaly": 129.5539,
        "meta_ephemeris_type": 0,
        "meta_classification_type": "U",
        "meta_norad_cat_id": 31661,
        "meta_element_set_no": 999,
        "meta_rev_at_epoch": 95534,
        "meta_bstar": 0.001959155,
        "meta_mean_motion_dot": 4.647e-05,
        "meta_mean_motion_ddot": 0,
        "tle_line1": "1 31661U 99025CBT 25334.17976196  .00004647  00000+0  19592-2 0  9993",
        "tle_line2": "2 31661  98.8613  53.1347 0057523 259.6353 129.5539 14.25271811955344"
      },
      "geometry": {
        "type": "Point",
        "coordinates": [
          -17.94621232297255,
          80.75885580223284
        ]
      }
    },
    {
      "type": "Feature",
      "properties": {
        "norad_id": 31663,
        "name": "FENGYUN 1C DEB",
        "group": "fengyun-1c-debris",
        "lat": -37.886969501679026,
        "lon": 56.53492741911477,
        "alt_km": 562.58367421209,
        "timestamp": "2025-12-02T13:52:17.545593+00:00",
        "meta_object_name": "FENGYUN 1C DEB",
        "meta_object_id": "1999-025CBV",
        "meta_epoch": "2025-12-01T23:51:17.889120",
        "meta_mean_motion": 14.76295698,
        "meta_eccentricity": 0.01898214,
        "meta_inclination": 98.8376,
        "meta_ra_of_asc_node": 242.8495,
        "meta_arg_of_pericenter": 271.4571,
        "meta_mean_anomaly": 86.49,
        "meta_ephemeris_type": 0,
        "meta_classification_type": "U",
        "meta_norad_cat_id": 31663,
        "meta_element_set_no": 999,
        "meta_rev_at_epoch": 99121,
        "meta_bstar": 0.00043915351,
        "meta_mean_motion_dot": 4.019e-05,
        "meta_mean_motion_ddot": 0,
        "tle_line1": "1 31663U 99025CBV 25335.99395705  .00004019  00000+0  43915-3 0  9997",
        "tle_line2": "2 31663  98.8376 242.8495 0189821 271.4571  86.4900 14.76295698991218"
      },
      "geometry": {
        "type": "Point",
        "coordinates": [
          56.53492741911477,
          -37.886969501679026
        ]
      }
    }
  ]
}